NORAD_CAT_ID,OBJECT_NAME,OBJECT_TYPE,EPOCH,MEAN_MOTION,ECCENTRICITY,INCLINATION,RA_OF_ASC_NODE,ARG_OF_PERICENTER,MEAN_ANOMALY,BSTAR,MEAN_MOTION_DOT,MEAN_MOTION_DDOT,TLE_LINE0,TLE_LINE1,TLE_LINE2,SEMIMAJOR_AXIS,PERIOD,APOGEE,PERIGEE,DECAYED
51750.0,STARLINK-3505,PAYLOAD,2023-04-02 22:28:36,15.0883807,0.0001336,53.2156,80.4039,91.7545,268.36,9.4925e-05,1.223e-05,0.0,0 STARLINK-3505,1 51750U 22016AN  23092.93652860  .00001223  00000-0  94925-4 0  9995,2 51750  53.2156  80.4039 0001336  91.7545 268.3600 15.08838070 61901,6917.886,95.438,540.676,538.827,0.0
51750.0,STARLINK-3505,PAYLOAD,2023-04-03 04:50:08,15.08839215,0.0001316,53.2162,79.2144,93.3965,266.7178,0.00010564,1.394e-05,0.0,0 STARLINK-3505,1 51750U 22016AN  23093.20148943  .00001394  00000-0  10564-3 0  9993,2 51750  53.2162  79.2144 0001316  93.3965 266.7178 15.08839215 63066,6917.883,95.438,540.658,538.837,0.0
51750.0,STARLINK-3505,PAYLOAD,2023-04-03 11:11:40,15.08843848,0.000129,53.2158,78.0245,91.1957,268.9182,0.00014538,2.027e-05,0.0,0 STARLINK-3505,1 51750U 22016AN  23093.46644655  .00002027  00000-0  14538-3 0  9991,2 51750  53.2158  78.0245 0001290  91.1957 268.9182 15.08843848 61983,6917.869,95.437,540.626,538.841,0.0
51750.0,STARLINK-3505,PAYLOAD,2023-04-03 15:57:50,15.08848415,0.0001078,53.2161,77.1325,88.9666,271.145,-0.00010463,-1.953e-05,0.0,0 STARLINK-3505,1 51750U 22016AN  23093.66516268 -.00001953  00000-0 -10463-3 0  9993,2 51750  53.2161  77.1325 0001078  88.9666 271.1450 15.08848415 63139,6917.855,95.437,540.465,538.974,0.0
51750.0,STARLINK-3505,PAYLOAD,2023-04-04 06:16:18,15.08844863,0.0001287,53.2163,74.4563,85.848,274.2659,7.0461e-05,8.34e-06,0.0,0 STARLINK-3505,1 51750U 22016AN  23094.26132729  .00000834  00000-0  70461-4 0  9996,2 51750  53.2163  74.4563 0001287  85.8480 274.2659 15.08844863 63225,6917.866,95.437,540.621,538.84,0.0
51750.0,STARLINK-3505,PAYLOAD,2023-04-04 07:51:41,15.08845623,0.0001274,53.2161,74.1588,86.0231,274.0906,8.5444e-05,1.072e-05,0.0,0 STARLINK-3505,1 51750U 22016AN  23094.32756681  .00001072  00000-0  85444-4 0  9994,2 51750  53.2161  74.1588 0001274  86.0231 274.0906 15.08845623 62115,6917.863,95.437,540.61,538.847,0.0
51750.0,STARLINK-3505,PAYLOAD,2023-04-04 22:10:10,15.088358,0.0001258,53.2163,71.4827,87.2039,272.9097,5.0666e-05,5.18e-06,0.0,0 STARLINK-3505,1 51750U 22016AN  23094.92373311  .00000518  00000-0  50666-4 0  9997,2 51750  53.2163  71.4827 0001258  87.2039 272.9097 15.08835800 62208,6917.893,95.438,540.628,538.888,0.0
51750.0,STARLINK-3505,PAYLOAD,2023-04-05 04:31:42,15.08838684,0.0001159,53.2158,70.2924,91.2321,268.8804,5.4424e-05,5.78e-06,0.0,0 STARLINK-3505,1 51750U 22016AN  23095.18869169  .00000578  00000-0  54424-4 0  9999,2 51750  53.2158  70.2924 0001159  91.2321 268.8804 15.08838684 63367,6917.884,95.438,540.551,538.948,0.0
51750.0,STARLINK-3505,PAYLOAD,2023-04-05 07:42:29,15.08840437,0.0001191,53.2158,69.6977,88.7354,271.3775,8.0034e-05,9.86e-06,0.0,0 STARLINK-3505,1 51750U 22016AN  23095.32117108  .00000986  00000-0  80034-4 0  9993,2 51750  53.2158  69.6977 0001191  88.7354 271.3775 15.08840437 62263,6917.879,95.438,540.568,538.92,0.0
51750.0,STARLINK-3505,PAYLOAD,2023-04-06 07:33:15,15.0884841,0.0001125,53.2153,65.2369,97.4874,262.6246,0.00018291,2.625e-05,0.0,0 STARLINK-3505,1 51750U 22016AN  23096.31476692  .00002625  00000-0  18291-3 0  9996,2 51750  53.2153  65.2369 0001125  97.4874 262.6246 15.08848410 63532,6917.855,95.437,540.498,538.941,0.0
51750.0,STARLINK-3505,PAYLOAD,2023-04-06 21:51:44,15.08835709,0.0001326,53.2156,62.5608,94.7645,265.3499,3.7062e-05,3.02e-06,0.0,0 STARLINK-3505,1 51750U 22016AN  23096.91093532  .00000302  00000-0  37062-4 0  9998,2 51750  53.2156  62.5608 0001326  94.7645 265.3499 15.08835709 63627,6917.894,95.438,540.676,538.841,0.0
51750.0,STARLINK-3505,PAYLOAD,2023-04-07 07:24:03,15.08837692,0.0001264,53.2166,60.7756,105.7731,254.3401,3.8465e-05,3.24e-06,0.0,0 STARLINK-3505,1 51750U 22016AN  23097.30837526  .00000324  00000-0  38465-4 0  9993,2 51750  53.2166  60.7756 0001264 105.7731 254.3401 15.08837692 62568,6917.887,95.438,540.627,538.878,0.0
51750.0,STARLINK-3505,PAYLOAD,2023-04-08 05:39:26,15.0885066,0.0001138,53.2171,56.6142,94.8344,265.2778,0.00010868,1.443e-05,0.0,0 STARLINK-3505,1 51750U 22016AN  23098.23572614  .00001443  00000-0  10868-3 0  9999,2 51750  53.2171  56.6142 0001138  94.8344 265.2778 15.08850660 63823,6917.848,95.437,540.5,538.926,0.0
51750.0,STARLINK-3505,PAYLOAD,2023-04-08 07:14:50,15.08849977,0.0001184,53.2165,56.3165,93.2609,266.8519,0.00016288,2.306e-05,0.0,0 STARLINK-3505,1 51750U 22016AN  23098.30196812  .00002306  00000-0  16288-3 0  9990,2 51750  53.2165  56.3165 0001184  93.2609 266.8519 15.08849977 62712,6917.85,95.437,540.534,538.896,0.0
51750.0,STARLINK-3505,PAYLOAD,2023-04-08 21:33:19,15.08834561,0.0001144,53.2164,53.639,102.9768,257.1352,6.2956e-05,7.14e-06,0.0,0 STARLINK-3505,1 51750U 22016AN  23098.89813680  .00000714  00000-0  62956-4 0  9998,2 51750  53.2164  53.6390 0001144 102.9768 257.1352 15.08834561 63926,6917.897,95.438,540.553,538.971,0.0
51750.0,STARLINK-3505,PAYLOAD,2023-04-09 05:30:14,15.0884702,0.0001247,53.2161,52.153,97.1939,262.9195,0.00020593,2.992e-05,0.0,0 STARLINK-3505,1 51750U 22016AN  23099.22933203  .00002992  00000-0  20593-3 0  9990,2 51750  53.2161  52.1530 0001247  97.1939 262.9195 15.08847020 63970,6917.859,95.437,540.587,538.861,0.0
51750.0,STARLINK-3505,PAYLOAD,2023-04-09 07:05:37,15.08848228,0.0001258,53.2163,51.8557,98.5152,261.5983,0.00023054,3.384e-05,0.0,0 STARLINK-3505,1 51750U 22016AN  23099.29557167  .00003384  00000-0  23054-3 0  9999,2 51750  53.2163  51.8557 0001258  98.5152 261.5983 15.08848228 62869,6917.855,95.437,540.591,538.85,0.0
51750.0,STARLINK-3505,PAYLOAD,2023-04-09 21:24:06,15.08832941,0.0001461,53.2169,49.1796,99.8529,260.2628,-0.00011866,-2.176e-05,0.0,0 STARLINK-3505,1 51750U 22016AN  23099.89173721 -.00002176  00000-0 -11866-3 0  9993,2 51750  53.2169  49.1796 0001461  99.8529 260.2628 15.08832941 62955,6917.902,95.438,540.778,538.756,0.0
51750.0,STARLINK-3505,PAYLOAD,2023-04-09 22:59:29,15.08832376,0.0001351,53.2168,48.8827,98.0064,262.1082,-0.00014206,-2.548e-05,0.0,0 STARLINK-3505,1 51750U 22016AN  23099.95797762 -.00002548  00000-0 -14206-3 0  9991,2 51750  53.2168  48.8827 0001351  98.0064 262.1082 15.08832376 64081,6917.904,95.438,540.703,538.834,0.0
51750.0,STARLINK-3505,PAYLOAD,2023-04-10 06:56:24,15.08843511,0.0001287,53.2173,47.3962,96.709,263.4049,6.6762e-05,7.75e-06,0.0,0 STARLINK-3505,1 51750U 22016AN  23100.28917504  .00000775  00000-0  66762-4 0  9991,2 51750  53.2173  47.3962 0001287  96.7090 263.4049 15.08843511 64139,6917.87,95.437,540.625,538.844,0.0
51750.0,STARLINK-3505,PAYLOAD,2023-04-10 21:14:53,15.08842079,0.0001303,53.2163,44.7189,101.342,258.7719,0.00014878,2.081e-05,0.0,0 STARLINK-3505,1 51750U 22016AN  23100.88533746  .00002081  00000-0  14878-3 0  9991,2 51750  53.2163  44.7189 0001303 101.3420 258.7719 15.08842079 63104,6917.874,95.437,540.64,538.838,0.0
51750.0,STARLINK-3505,PAYLOAD,2023-04-11 06:47:11,15.08855783,0.0001325,53.2163,42.935,100.5689,259.5452,0.00047152,7.227e-05,0.0,0 STARLINK-3505,1 51750U 22016AN  23101.28277226  .00007227  00000-0  47152-3 0  9992,2 51750  53.2163  42.9350 0001325 100.5689 259.5452 15.08855783 63161,6917.832,95.437,540.614,538.781,0.0
51750.0,STARLINK-3505,PAYLOAD,2023-04-11 21:05:40,15.08840279,0.000137,53.2157,40.258,98.952,261.1627,5.365e-05,5.66e-06,0.0,0 STARLINK-3505,1 51750U 22016AN  23101.87893707  .00000566  00000-0  53650-4 0  9995,2 51750  53.2157  40.2580 0001370  98.9520 261.1627 15.08840279 64375,6917.88,95.438,540.692,538.797,0.0
51750.0,STARLINK-3505,PAYLOAD,2023-04-12 05:02:35,15.08841246,0.0001059,53.2167,38.7726,89.5895,270.5219,0.00012748,1.742e-05,0.0,0 STARLINK-3505,1 51750U 22016AN  23102.21013793  .00001742  00000-0  12748-3 0  9992,2 51750  53.2167  38.7726 0001059  89.5895 270.5219 15.08841246 63303,6917.877,95.437,540.474,539.009,0.0
51750.0,STARLINK-3505,PAYLOAD,2023-04-12 19:21:04,15.08836729,0.0001138,53.2169,36.0963,88.2335,271.8788,0.00010717,1.418e-05,0.0,0 STARLINK-3505,1 51750U 22016AN  23102.80630258  .00001418  00000-0  10717-3 0  9992,2 51750  53.2169  36.0963 0001138  88.2335 271.8788 15.08836729 64511,6917.89,95.438,540.543,538.968,0.0
51750.0,STARLINK-3505,PAYLOAD,2023-04-13 06:28:46,15.08852139,0.0001065,53.217,34.015,80.8976,279.2137,0.00050379,7.742e-05,0.0,0 STARLINK-3505,1 51750U 22016AN  23103.26997893  .00007742  00000-0  50379-3 0  9998,2 51750  53.2170  34.0150 0001065  80.8976 279.2137 15.08852139 63463,6917.843,95.437,540.445,538.972,0.0
51750.0,STARLINK-3505,PAYLOAD,2023-04-13 12:50:19,15.08848609,7.25e-05,53.2166,32.8268,51.5327,308.573,0.00062599,9.691e-05,0.0,0 STARLINK-3505,1 51750U 22016AN  23103.53494270  .00009691  00000-0  62599-3 0  9991,2 51750  53.2166  32.8268 0000725  51.5327 308.5730 15.08848609 64622,6917.854,95.437,540.221,539.218,0.0
51750.0,STARLINK-3505,PAYLOAD,2023-04-14 04:44:09,15.08861124,9.5e-05,53.2169,29.8516,91.9643,268.1457,0.00052514,8.084e-05,0.0,0 STARLINK-3505,1 51750U 22016AN  23104.19733303  .00008084  00000-0  52514-3 0  9998,2 51750  53.2169  29.8516 0000950  91.9643 268.1457 15.08861124 63607,6917.816,95.436,540.338,539.024,0.0
51750.0,STARLINK-3505,PAYLOAD,2023-04-14 23:48:47,15.0885047,0.000113,53.217,26.2829,91.2443,268.8678,0.00020121,2.917e-05,0.0,0 STARLINK-3505,1 51750U 22016AN  23104.99221517  .00002917  00000-0  20121-3 0  9993,2 51750  53.2170  26.2829 0001130  91.2443 268.8678 15.08850470 64840,6917.848,95.437,540.495,538.932,0.0
51750.0,STARLINK-3505,PAYLOAD,2023-04-15 04:34:56,15.08858284,0.0001193,53.2176,25.3906,93.697,266.4158,0.00055431,8.549e-05,0.0,0 STARLINK-3505,1 51750U 22016AN  23105.19093265  .00008549  00000-0  55431-3 0  9992,2 51750  53.2176  25.3906 0001193  93.6970 266.4158 15.08858284 63759,6917.825,95.436,540.515,538.864,0.0
